KUIPER-00112            
1 65150U 25171U   25325.91670139 -.01051920  00000+0 -83097-1 0  9993
2 65150  51.9107 273.5525 0009329 153.7344 120.2428 15.03103291  5640
KUIPER-00114            
1 65151U 25171V   25325.27306314  .00004706  00000+0  64590-3 0  9990
2 65151  51.9001 295.0240 0006530 106.3759 253.7922 14.79934966 16581
KUIPER-00115            
1 65152U 25171W   25325.28117148  .00006080  00000+0  82489-3 0  9991
2 65152  51.9014 287.4653 0010634 130.0555 230.1342 14.79959395 16697
KUIPER-00116            
1 65153U 25171X   25325.30961561  .00017421  00000+0  23067-2 0  9998
2 65153  51.8999 292.3885 0011279  92.6167 267.6086 14.79924966 16628
KUIPER-00118            
1 65154U 25171Y   25325.30679438 -.00000425  00000+0 -26713-4 0  9999
2 65154  51.9013 294.8515 0001842 117.9718 242.1431 14.79937983 16593
KUIPER-00119            
1 65155U 25171Z   25325.91670139 -.00000599  00000+0 -49364-4 0  9995
2 65155  51.9000 279.7400 0009004 122.8574 176.4799 14.79800262  5142
KUIPER-00120            
1 65762U 25217A   25325.91670139  .00010546  00000+0  98374-3 0  9995
2 65762  51.8903 170.3216 0016015 294.9309 224.9779 14.94597986  1309
KUIPER-00132            
1 65763U 25217B   25325.76797581  .00053644  00000+0  14665-2 0  9996
2 65763  51.8611 166.1431 0005258 298.8024  61.2434 15.36841770  8815
